QIANFAN-1               
1 60379U 24140A   25251.88997545  .00000099  00000+0  13375-3 0  9995
2 60379  88.9802 309.1060 0019540 126.0886 234.2079 13.50963272 54544
QIANFAN-2               
1 60380U 24140B   25251.91860229  .00000086  00000+0  11443-3 0  9999
2 60380  88.9788 308.9555 0015050 101.3895 258.8948 13.50963667 54605
QIANFAN-3               
1 60381U 24140C   25251.92688362  .00000091  00000+0  12206-3 0  9991
2 60381  88.9781 309.0942 0016139 112.2394 248.0470 13.50963753 54512
QIANFAN-4               
1 60382U 24140D   25251.90230686  .00000086  00000+0  11463-3 0  9990
2 60382  88.9806 308.9707 0015283 103.6796 256.6058 13.50963347 54636
QIANFAN-5               
1 60383U 24140E   25251.87757902  .00000093  00000+0  12541-3 0  9998
2 60383  88.9781 309.1250 0017283 122.2925 237.9903 13.50966689 54495
QIANFAN-6               
1 60384U 24140F   25251.89814854  .00000097  00000+0  13135-3 0  9995
2 60384  88.9807 308.8438 0015375 108.7145 251.5676 13.50962868 54698
QIANFAN-7               
1 60385U 24140G   25251.90873342  .00000512  00000+0  20206-3 0  9994
2 60385  88.9806 304.8734 0014512   2.8326 357.2948 14.27542659 56864
QIANFAN-8               
1 60386U 24140H   25251.90637380  .00000088  00000+0  11660-3 0  9997
2 60386  88.9809 309.0788 0018815 110.8703 249.4465 13.50966766 54546
